NOAA 15                 
1 25338U 98030A   23012.13793117  .00000232  00000+0  11501-3 0  9998
2 25338  98.6241  43.7297 0011156  53.1067 307.1134 14.26220694283010
DMSP 5D-3 F15 (USA 147) 
1 25991U 99067A   23011.90115345  .00000286  00000+0  16642-3 0  9999
2 25991  99.0660  12.1906 0009510 322.9449  55.1698 14.16624673193282
DMSP 5D-3 F16 (USA 172) 
1 28054U 03048A   23012.17474722  .00000194  00000+0  12663-3 0  9990
2 28054  99.0042   9.2274 0008244  88.3622 343.7277 14.13725995992511
NOAA 18                 
1 28654U 05018A   23012.12969962  .00000294  00000+0  18190-3 0  9997
2 28654  98.9280  87.1795 0015219 101.6909 258.5971 14.12837633909535
METEOSAT-9 (MSG-2)      
1 28912U 05049B   23011.70735903  .00000141  00000+0  00000+0 0  9995
2 28912   6.4897  64.9087 0001349 197.7609 148.5972  1.00269762 62476
EWS-G1 (GOES 13)        
1 29155U 06018A   23011.65183241  .00000053  00000+0  00000+0 0  9990
2 29155   1.1120  92.9621 0005075 163.1170 151.1222  1.00265557 30811
DMSP 5D-3 F17 (USA 191) 
1 29522U 06050A   23012.15793599  .00000227  00000+0  14188-3 0  9992
2 29522  98.7602  28.2313 0010297  32.3168 327.8634 14.14160148835408
FENGYUN 3A              
1 32958U 08026A   23012.15018965  .00000229  00000+0  13041-3 0  9990
2 32958  98.5342 331.5656 0009461 134.5575 225.6376 14.18781449757927
FENGYUN 2E              
1 33463U 08066A   23011.77554589 -.00000189  00000+0  00000+0 0  9993
2 33463   6.3691  64.0591 0001847 261.2737 151.5830  1.00266822 51533
NOAA 19                 
1 33591U 09005A   23012.22578378  .00000221  00000+0  14405-3 0  9996
2 33591  99.1235  55.4944 0013287 324.6684  35.3606 14.12665497717921
GOES 14                 
1 35491U 09033A   23012.22549353 -.00000075  00000+0  00000+0 0  9999
2 35491   0.0899 239.0350 0017135 349.2841 219.9331  1.00269633 49607
METEOR-M 1              
1 35865U 09049A   23012.18119366  .00000224  00000+0  11994-3 0  9996
2 35865  98.5587 341.2265 0002248   8.6236 351.4980 14.22398664691354
DMSP 5D-3 F18 (USA 210) 
1 35951U 09057A   23012.21384345  .00000356  00000+0  21179-3 0  9998
2 35951  98.7490 351.7302 0010473 208.2381 151.8225 14.13623488682608
GOES 15                 
1 36411U 10008A   23011.74449131  .00000071  00000+0  00000+0 0  9990
2 36411   0.0464 291.0949 0003074 267.9341  51.9481  1.00266326 47095
COMS 1                  
1 36744U 10032A   23011.93888069 -.00000328  00000+0  00000+0 0  9990
2 36744   1.5988  91.3657 0000984 204.7181 281.2533  1.00271067 46099
FENGYUN 3B              
1 37214U 10059A   23012.12650065  .00000093  00000+0  72778-4 0  9991
2 37214  99.0907  26.7976 0023042 125.2729 235.0610 14.14284500630453
SUOMI NPP               
1 37849U 11061A   23012.10728841  .00000147  00000+0  90494-4 0  9990
2 37849  98.7551 312.9526 0001330  79.6734 290.8958 14.19534283580788
FENGYUN 2F              
1 38049U 12002A   23011.78440339 -.00000343  00000+0  00000+0 0  9993
2 38049   4.3006  78.0627 0001346 276.5295 150.9258  1.00276223 40321
METEOSAT-10 (MSG-3)     
1 38552U 12035B   23011.84359786  .00000080  00000+0  00000+0 0  9997
2 38552   1.8701  51.0407 0000998 207.1367 166.2615  1.00277966 38300
METOP-B                 
1 38771U 12049A   23012.12225102  .00000190  00000+0  10663-3 0  9993
2 38771  98.7028  73.9352 0001544 114.9703 332.8710 14.21495483535378
FENGYUN 3C              
1 39260U 13052A   23012.15311168  .00000136  00000+0  89743-4 0  9999
2 39260  98.4380  34.5248 0011844  37.7935 322.4085 14.15975542481451
METEOR-M 2              
1 40069U 14037A   23012.70221905  .00000077  00000+0  54642-4 0  9996
2 40069  98.4256  25.8862 0006868  77.0761 283.1177 14.20735185441578
HIMAWARI-8              
1 40267U 14060A   23012.05952111 -.00000258  00000+0  00000+0 0  9996
2 40267   0.0533 238.7274 0001250  80.9603 313.6828  1.00269817 30300
FENGYUN 2G              
1 40367U 14090A   23012.00498432 -.00000288  00000+0  00000+0 0  9999
2 40367   2.4574  87.3556 0000930 253.5066 231.9504  1.00277157 29484
METEOSAT-11 (MSG-4)     
1 40732U 15034A   23011.84176740  .00000016  00000+0  00000+0 0  9998
2 40732   0.4642   2.3521 0000670  63.3354 348.7328  1.00277309 27467
ELEKTRO-L 2             
1 41105U 15074A   23011.89632821 -.00000100  00000+0  00000+0 0  9994
2 41105   3.5123  85.6932 0002474 165.5147 168.1139  1.00270813 25958
HIMAWARI-9              
1 41836U 16064A   23011.88521795 -.00000258  00000+0  00000+0 0  9995
2 41836   0.0376 179.8388 0001376 141.8677 248.8407  1.00271553 22635
GOES 16                 
1 41866U 16071A   23011.75486394 -.00000231  00000+0  00000+0 0  9998
2 41866   0.0765 250.7444 0000836  72.6786 344.1261  1.00271921 22552
FENGYUN 4A              
1 41882U 16077A   23011.86233833 -.00000313  00000+0  00000+0 0  9993
2 41882   0.0574  53.3031 0005596 356.9683 115.9562  1.00271447 22426
CYGFM05                 
1 41884U 16078A   23011.61125972  .00006579  00000+0  31854-3 0  9997
2 41884  34.9572 344.1884 0014264 162.0488 198.0731 15.17795913336419
CYGFM04                 
1 41885U 16078B   23011.91722059  .00007182  00000+0  34203-3 0  9992
2 41885  34.9503 330.3153 0013169 184.3553 175.7046 15.18363400336518
CYGFM02                 
1 41886U 16078C   23012.23143462  .00006882  00000+0  32734-3 0  9997
2 41886  34.9595 330.6278 0013736 180.7693 179.3000 15.18409893336715
CYGFM01                 
1 41887U 16078D   23012.23236731  .00007019  00000+0  34157-3 0  9994
2 41887  34.9541 343.0464 0014843 166.4135 193.6979 15.17600241336571
CYGFM08                 
1 41888U 16078E   23012.08477136  .00006874  00000+0  32982-3 0  9996
2 41888  34.9512 335.6075 0014208 178.7135 181.3616 15.18101254336603
CYGFM07                 
1 41890U 16078G   23012.20350766  .00007065  00000+0  33669-3 0  9998
2 41890  34.9533 328.3203 0012657 185.6450 174.4121 15.18353296336715
CYGFM03                 
1 41891U 16078H   23012.07049910  .00006920  00000+0  32987-3 0  9991
2 41891  34.9563 329.6732 0012165 182.2081 177.8579 15.18354310336685
FENGYUN 3D              
1 43010U 17072A   23012.11062903  .00000126  00000+0  81750-4 0  9998
2 43010  98.8418 320.9048 0002279  54.3633 305.7763 14.19126933267362
NOAA 20                 
1 43013U 17073A   23012.20991844  .00000129  00000+0  81807-4 0  9993
2 43013  98.7389 312.6826 0001292 110.5735 249.5579 14.19543693266843
GOES 17                 
1 43226U 18022A   23010.68452196  .00000113  00000+0  00000+0 0  9990
2 43226   0.0067 160.8990 0000528 160.1134 258.0183  1.00273520 17865
FENGYUN 2H              
1 43491U 18050A   23011.85754425 -.00000114  00000+0  00000+0 0  9997
2 43491   1.6758  93.5187 0002028  74.9569 330.6470  1.00273844 16880
METOP-C                 
1 43689U 18087A   23012.14160429  .00000187  00000+0  10545-3 0  9992
2 43689  98.7073  74.0121 0003867 141.4842 218.6612 14.21501300216955
GEO-KOMPSAT-2A          
1 43823U 18100A   23010.05674359 -.00000330  00000+0  00000+0 0  9990
2 43823   0.0397 135.3022 0000505 245.0319 237.6546  1.00270205 15041
METEOR-M2 2             
1 44387U 19038A   23012.15884641  .00000042  00000+0  37991-4 0  9990
2 44387  98.7527 336.5681 0002135  54.7126 305.4258 14.23739480183105
FENGYUN 3E              
1 49008U 21062A   23012.18945927  .00000033  00000+0  35988-4 0  9997
2 49008  98.7170  15.9189 0002865  99.7360 260.4143 14.19752500 78934
GOES 18                 
1 51850U 22021A   23007.79750510  .00000109  00000+0  00000+0 0  9990
2 51850   0.0091 273.9665 0000967   4.0073 339.2774  1.00272787  3209
NOAA 21 (JPSS-2)        
1 54234U 22150A   23011.87526443  .00000180  00000+0  10592-3 0  9992
2 54234  98.7029 312.3980 0001123  85.4275 274.7030 14.19554334  8874
METEOSAT-12             
1 54743U 22170C   23012.20552846 -.00000012  00000+0  00000+0 0  9997
2 54743   0.9349 298.5979 0000326 141.3526 102.0842  1.00273107   426
